{
    "links": {
        "self": "http://www.neowsapp.com/rest/v1/neo/3843677?api_key=iIulBulltgU6a56xZRHN4H3l9WmuAYTsLGpBGhQ2"
    },
    "id": "3843677",
    "neo_reference_id": "3843677",
    "name": "(2019 QN5)",
    "designation": "2019 QN5",
    "nasa_jpl_url": "http://ssd.jpl.nasa.gov/sbdb.cgi?sstr=3843677",
    "absolute_magnitude_h": 24.3,
    "estimated_diameter": {
        "kilometers": {
            "estimated_diameter_min": 0.0366906138,
            "estimated_diameter_max": 0.0820427065
        },
        "meters": {
            "estimated_diameter_min": 36.6906137531,
            "estimated_diameter_max": 82.0427064882
        },
        "miles": {
            "estimated_diameter_min": 0.0227984834,
            "estimated_diameter_max": 0.0509789586
        },
        "feet": {
            "estimated_diameter_min": 120.3760332259,
            "estimated_diameter_max": 269.1689931548
        }
    },
    "is_potentially_hazardous_asteroid": false,
    "close_approach_data": [
        {
            "close_approach_date": "2019-08-18",
            "close_approach_date_full": "2019-Aug-18 15:17",
            "epoch_date_close_approach": 1566141420000,
            "relative_velocity": {
                "kilometers_per_second": "4.7079205587",
                "kilometers_per_hour": "16948.5140111966",
                "miles_per_hour": "10531.1474976794"
            },
            "miss_distance": {
                "astronomical": "0.2321843608",
                "lunar": "90.3197163512",
                "kilometers": "34734285.822991496",
                "miles": "21582884.3987588048"
            },
            "orbiting_body": "Earth"
        }
    ],
    "orbital_data": {
        "orbit_id": "1",
        "orbit_determination_date": "2019-08-30 07:15:39",
        "first_observation_date": "2019-08-25",
        "last_observation_date": "2019-08-29",
        "data_arc_in_days": 4,
        "observations_used": 18,
        "orbit_uncertainty": "8",
        "minimum_orbit_intersection": ".232149",
        "jupiter_tisserand_invariant": "3.549",
        "epoch_osculation": "2458723.5",
        "eccentricity": ".4284885549832387",
        "semi_major_axis": "2.176521543622313",
        "inclination": "7.478799342420063",
        "ascending_node_longitude": "331.3194151817479",
        "orbital_period": "1172.851107375923",
        "perihelion_distance": "1.2439069725057",
        "perihelion_argument": "354.0203155696208",
        "aphelion_distance": "3.109136114738925",
        "perihelion_time": "2458714.185601578031",
        "mean_anomaly": "2.859001804083284",
        "mean_motion": ".3069443322651974",
        "equinox": "J2000",
        "orbit_class": {
            "orbit_class_type": "AMO",
            "orbit_class_description": "Near-Earth asteroid orbits similar to that of 1221 Amor",
            "orbit_class_range": "1.017 AU < q (perihelion) < 1.3 AU"
        }
    },
    "is_sentry_object": false
}